{
    "links": {
        "self": "http://www.neowsapp.com/rest/v1/neo/3829434?api_key=iIulBulltgU6a56xZRHN4H3l9WmuAYTsLGpBGhQ2"
    },
    "id": "3829434",
    "neo_reference_id": "3829434",
    "name": "(2018 RZ5)",
    "designation": "2018 RZ5",
    "nasa_jpl_url": "http://ssd.jpl.nasa.gov/sbdb.cgi?sstr=3829434",
    "absolute_magnitude_h": 29.7,
    "estimated_diameter": {
        "kilometers": {
            "estimated_diameter_min": 0.0030517923,
            "estimated_diameter_max": 0.0068240151
        },
        "meters": {
            "estimated_diameter_min": 3.0517923259,
            "estimated_diameter_max": 6.824015094
        },
        "miles": {
            "estimated_diameter_min": 0.0018962952,
            "estimated_diameter_max": 0.0042402451
        },
        "feet": {
            "estimated_diameter_min": 10.0124423346,
            "estimated_diameter_max": 22.388501681
        }
    },
    "is_potentially_hazardous_asteroid": false,
    "close_approach_data": [
        {
            "close_approach_date": "1978-05-21",
            "close_approach_date_full": "1978-May-21 17:41",
            "epoch_date_close_approach": 264620460000,
            "relative_velocity": {
                "kilometers_per_second": "7.4632405483",
                "kilometers_per_hour": "26867.6659737467",
                "miles_per_hour": "16694.5227824095"
            },
            "miss_distance": {
                "astronomical": "1.3606171895",
                "lunar": "529.2800867155",
                "kilometers": "203545433.434586365",
                "miles": "126477267.507427237"
            },
            "orbiting_body": "Juptr"
        },
        {
            "close_approach_date": "2018-09-12",
            "close_approach_date_full": "2018-Sep-12 15:39",
            "epoch_date_close_approach": 1536766740000,
            "relative_velocity": {
                "kilometers_per_second": "19.5004974436",
                "kilometers_per_hour": "70201.7907967811",
                "miles_per_hour": "43620.6627314777"
            },
            "miss_distance": {
                "astronomical": "0.0013365414",
                "lunar": "0.5199146046",
                "kilometers": "199943.746606818",
                "miles": "124239.2830893684"
            },
            "orbiting_body": "Moon"
        },
        {
            "close_approach_date": "2018-09-12",
            "close_approach_date_full": "2018-Sep-12 20:08",
            "epoch_date_close_approach": 1536782880000,
            "relative_velocity": {
                "kilometers_per_second": "20.2298310289",
                "kilometers_per_hour": "72827.3917039007",
                "miles_per_hour": "45252.1090284598"
            },
            "miss_distance": {
                "astronomical": "0.000331397",
                "lunar": "0.128913433",
                "kilometers": "49576.28532439",
                "miles": "30805.275240982"
            },
            "orbiting_body": "Earth"
        },
        {
            "close_approach_date": "2085-07-02",
            "close_approach_date_full": "2085-Jul-02 02:32",
            "epoch_date_close_approach": 3644879520000,
            "relative_velocity": {
                "kilometers_per_second": "7.5058761629",
                "kilometers_per_hour": "27021.154186363",
                "miles_per_hour": "16789.8943887432"
            },
            "miss_distance": {
                "astronomical": "1.0496498486",
                "lunar": "408.3137911054",
                "kilometers": "157025381.596382482",
                "miles": "97571047.6943909716"
            },
            "orbiting_body": "Juptr"
        },
        {
            "close_approach_date": "2168-06-19",
            "close_approach_date_full": "2168-Jun-19 19:48",
            "epoch_date_close_approach": 6263034480000,
            "relative_velocity": {
                "kilometers_per_second": "6.6303421505",
                "kilometers_per_hour": "23869.2317418525",
                "miles_per_hour": "14831.412356486"
            },
            "miss_distance": {
                "astronomical": "1.036863164",
                "lunar": "403.339770796",
                "kilometers": "155112520.81586068",
                "miles": "96382451.121330184"
            },
            "orbiting_body": "Juptr"
        }
    ],
    "orbital_data": {
        "orbit_id": "2",
        "orbit_determination_date": "2018-09-17 07:13:20",
        "first_observation_date": "2018-09-13",
        "last_observation_date": "2018-09-14",
        "data_arc_in_days": 1,
        "observations_used": 20,
        "orbit_uncertainty": "7",
        "minimum_orbit_intersection": ".000409894",
        "jupiter_tisserand_invariant": "2.785",
        "epoch_osculation": "2459000.5",
        "eccentricity": ".7363378481257382",
        "semi_major_axis": "2.880328025822308",
        "inclination": "13.69813034651566",
        "ascending_node_longitude": "169.7493488659343",
        "orbital_period": "1785.506156917332",
        "perihelion_distance": ".7594334853920539",
        "perihelion_argument": "114.8835387733001",
        "aphelion_distance": "5.001222566252562",
        "perihelion_time": "2458333.905370027257",
        "mean_anomaly": "134.401142141398",
        "mean_motion": ".2016234996475947",
        "equinox": "J2000",
        "orbit_class": {
            "orbit_class_type": "APO",
            "orbit_class_description": "Near-Earth asteroid orbits which cross the Earth’s orbit similar to that of 1862 Apollo",
            "orbit_class_range": "a (semi-major axis) > 1.0 AU; q (perihelion) < 1.017 AU"
        }
    },
    "is_sentry_object": false
}